start
G0 F111
G90 G21
G0 X54.16 Y308.04
G1 F100
G0 Z 0
G0 Z0
G0 X54.16 Y308.04
G0 X70.48 Y308.04
G0 X50.33 Y281.58
G0 X72.29 Y252.16
G0 X55.24 Y252.16
G0 X38.24 Y276.39
G0 X38.11 Y276.39
G0 X38.11 Y252.16
G0 X24.95 Y252.16
G0 X24.95 Y308.04
G0 X38.11 Y308.04
G0 X38.11 Y284.99
G0 X38.24 Y284.99
G0 X54.16 Y308.04
G0 X54.16 Y308.04
G0 Z -0
G0 F111
G0 X89.02 Y264.46
G1 F100
G0 Z 0
G0 Z0
G0 X89.02 Y264.46
G0 X104.8 Y264.46
G0 X104.8 Y252.16
G0 X75.85 Y252.16
G0 X75.85 Y308.04
G0 X89.02 Y308.04
G0 X89.02 Y264.46
G0 X89.02 Y264.46
G0 Z -0
G0 F111
G0 X121.99 Y261.86
G1 F100
G0 Z 0
G0 Z0
G0 X121.99 Y261.86
G0 X118.5 Y252.16
G0 X104.53 Y252.16
G0 X124.01 Y308.04
G0 X138.38 Y308.04
G0 X157.45 Y252.16
G0 X143.42 Y252.16
G0 X140.13 Y261.86
G0 X121.99 Y261.86
G0 X121.99 Y261.86
G0 Z -0
G0 F111
G0 X131.19 Y290.77
G1 F100
G0 Z 0
G0 Z0
G0 X131.19 Y290.77
G0 X131.06 Y290.77
G0 X125.62 Y272.98
G0 X136.57 Y272.98
G0 X131.19 Y290.77
G0 X131.19 Y290.77
G0 Z -0
G0 F111
G0 X173.37 Y271.94
G1 F100
G0 Z 0
G0 Z0
G0 X173.37 Y271.94
G0 X173.5 Y271.94
G0 X184.12 Y308.04
G0 X194.59 Y308.04
G0 X204.53 Y271.94
G0 X204.67 Y271.94
G0 X214.2 Y308.04
G0 X227.9 Y308.04
G0 X211.72 Y252.16
G0 X198.29 Y252.16
G0 X189.42 Y284.54
G0 X189.29 Y284.54
G0 X179.35 Y252.16
G0 X165.98 Y252.16
G0 X150.87 Y308.04
G0 X164.57 Y308.04
G0 X173.37 Y271.94
G0 X173.37 Y271.94
G0 Z -0
G0 F111
G0 X271.02 Y264.46
G1 F100
G0 Z 0
G0 Z0
G0 X271.02 Y264.46
G0 X271.02 Y252.16
G0 X227.64 Y252.16
G0 X251.61 Y295.73
G0 X231.73 Y295.73
G0 X231.73 Y308.04
G0 X273.64 Y308.04
G0 X249.8 Y264.46
G0 X271.02 Y264.46
G0 X271.02 Y264.46
G0 Z -0
G0 F111
G0 X69.45 Y81.57
G1 F100
G0 Z 0
G0 Z0
G0 X69.45 Y81.57
G0 X69.45 Y81.57
G0 X68.43 Y80.85
G0 X66.46 Y79.39
G0 X64.6 Y77.86
G0 X62.84 Y76.28
G0 X61.17 Y74.65
G0 X59.61 Y72.96
G0 X58.14 Y71.21
G0 X56.78 Y69.41
G0 X56.13 Y68.49
G0 X56.13 Y68.49
G0 X55.82 Y68.02
G0 X55.24 Y67.06
G0 X54.71 Y66.07
G0 X54.24 Y65.04
G0 X53.81 Y63.99
G0 X53.44 Y62.9
G0 X52.98 Y61.2
G0 X52.56 Y58.83
G0 X52.34 Y56.33
G0 X52.33 Y53.7
G0 X52.53 Y50.94
G0 X52.71 Y49.52
G0 X52.71 Y49.52
G0 X55.66 Y49.52
G0 X58.37 Y49.52
G0 X58.37 Y49.52
G0 X60.96 Y49.52
G0 X63.55 Y49.52
G0 X63.55 Y49.52
G0 X73.86 Y49.52
G0 X84.06 Y49.52
G0 X84.06 Y49.52
G0 X94.4 Y49.52
G0 X104.68 Y49.52
G0 X104.68 Y49.52
G0 X114.9 Y49.52
G0 X125.06 Y49.52
G0 X125.06 Y49.52
G0 X130.23 Y49.43
G0 X137.93 Y49.41
G0 X143.03 Y49.47
G0 X145.57 Y49.52
G0 X145.57 Y49.52
G0 X146.25 Y49.5
G0 X147.44 Y49.38
G0 X148.41 Y49.15
G0 X149.16 Y48.8
G0 X149.45 Y48.58
G0 X149.45 Y48.58
G0 X149.58 Y48.45
G0 X149.82 Y48.15
G0 X150.1 Y47.57
G0 X150.37 Y46.57
G0 X150.5 Y45.3
G0 X150.52 Y44.57
G0 X150.52 Y44.57
G0 X150.52 Y35.35
G0 X150.52 Y26.07
G0 X150.52 Y26.07
G0 X150.52 Y16.73
G0 X150.52 Y7.33
G0 X150.52 Y7.33
G0 X132.9 Y7.33
G0 X115.4 Y7.33
G0 X115.4 Y7.33
G0 X97.96 Y7.33
G0 X80.52 Y7.33
G0 X80.52 Y7.33
G0 X63.08 Y7.33
G0 X45.64 Y7.33
G0 X45.64 Y7.33
G0 X28.03 Y7.33
G0 X10.53 Y7.33
G0 X10.53 Y7.33
G0 X10.51 Y12.85
G0 X10.4 Y23.75
G0 X10.29 Y29.13
G0 X10.29 Y29.13
G0 X10.25 Y31.81
G0 X10.25 Y37.16
G0 X10.37 Y42.49
G0 X10.6 Y47.81
G0 X10.76 Y50.46
G0 X10.76 Y50.46
G0 X10.89 Y52.17
G0 X11.22 Y55.57
G0 X11.63 Y58.96
G0 X12.13 Y62.33
G0 X12.41 Y64.01
G0 X12.41 Y64.01
G0 X12.73 Y65.69
G0 X13.46 Y69.03
G0 X14.35 Y72.36
G0 X15.38 Y75.67
G0 X15.95 Y77.33
G0 X15.95 Y77.33
G0 X16.5 Y78.9
G0 X17.71 Y81.98
G0 X19.06 Y84.95
G0 X20.56 Y87.81
G0 X22.21 Y90.56
G0 X24.01 Y93.21
G0 X25.95 Y95.75
G0 X28.05 Y98.18
G0 X29.15 Y99.36
G0 X29.15 Y99.36
G0 X30.27 Y100.52
G0 X32.57 Y102.79
G0 X34.93 Y105.01
G0 X37.34 Y107.17
G0 X39.82 Y109.27
G0 X42.35 Y111.32
G0 X44.94 Y113.32
G0 X47.6 Y115.26
G0 X48.94 Y116.21
G0 X48.94 Y116.21
G0 X54.12 Y119.75
G0 X64.43 Y126.88
G0 X69.56 Y130.47
G0 X69.56 Y130.47
G0 X74.7 Y134.06
G0 X85.01 Y141.18
G0 X90.19 Y144.73
G0 X90.19 Y144.73
G0 X91.29 Y145.5
G0 X93.41 Y147.1
G0 X95.41 Y148.75
G0 X97.3 Y150.47
G0 X99.07 Y152.25
G0 X100.72 Y154.1
G0 X102.25 Y156.01
G0 X103.66 Y157.98
G0 X104.33 Y158.99
G0 X104.33 Y158.99
G0 X104.95 Y160.01
G0 X106.05 Y162.15
G0 X106.97 Y164.38
G0 X107.69 Y166.71
G0 X108.22 Y169.14
G0 X108.56 Y171.67
G0 X108.7 Y174.3
G0 X108.66 Y177.03
G0 X108.57 Y178.43
G0 X108.57 Y178.43
G0 X108.45 Y179.8
G0 X108.09 Y182.43
G0 X107.54 Y184.94
G0 X106.8 Y187.31
G0 X105.87 Y189.54
G0 X104.75 Y191.65
G0 X103.45 Y193.63
G0 X101.96 Y195.47
G0 X101.14 Y196.34
G0 X101.14 Y196.34
G0 X100.28 Y197.17
G0 X98.45 Y198.72
G0 X96.45 Y200.1
G0 X94.3 Y201.32
G0 X91.98 Y202.39
G0 X89.51 Y203.28
G0 X86.88 Y204.02
G0 X84.1 Y204.6
G0 X82.64 Y204.82
G0 X82.64 Y204.82
G0 X81.41 Y204.97
G0 X78.95 Y205.1
G0 X76.52 Y205.02
G0 X74.1 Y204.71
G0 X71.69 Y204.18
G0 X69.31 Y203.43
G0 X66.95 Y202.45
G0 X64.6 Y201.26
G0 X63.44 Y200.58
G0 X63.44 Y200.58
G0 X62.3 Y199.86
G0 X60.16 Y198.34
G0 X58.23 Y196.7
G0 X56.49 Y194.96
G0 X54.94 Y193.1
G0 X53.59 Y191.13
G0 X52.43 Y189.06
G0 X51.47 Y186.87
G0 X51.06 Y185.73
G0 X51.06 Y185.73
G0 X50.61 Y184.56
G0 X49.85 Y182.26
G0 X49.53 Y181.14
G0 X49.53 Y181.14
G0 X48.91 Y178.81
G0 X48.24 Y176.31
G0 X48.24 Y176.31
G0 X43.73 Y176.31
G0 X39.16 Y176.31
G0 X39.16 Y176.31
G0 X34.54 Y176.31
G0 X29.86 Y176.31
G0 X29.86 Y176.31
G0 X25.11 Y176.31
G0 X20.31 Y176.31
G0 X20.31 Y176.31
G0 X15.27 Y176.31
G0 X9.82 Y176.31
G0 X9.82 Y176.31
G0 X10.27 Y178.79
G0 X11.04 Y183.8
G0 X11.35 Y186.32
G0 X11.35 Y186.32
G0 X11.51 Y187.58
G0 X11.88 Y190.07
G0 X12.32 Y192.52
G0 X12.84 Y194.92
G0 X13.12 Y196.1
G0 X13.12 Y196.1
G0 X13.48 Y197.45
G0 X14.26 Y200.1
G0 X15.1 Y202.69
G0 X16 Y205.23
G0 X16.97 Y207.7
G0 X18.01 Y210.12
G0 X19.12 Y212.47
G0 X20.29 Y214.77
G0 X20.9 Y215.9
G0 X20.9 Y215.9
G0 X21.55 Y217.01
G0 X22.91 Y219.18
G0 X24.33 Y221.28
G0 X25.82 Y223.31
G0 X27.36 Y225.26
G0 X28.97 Y227.15
G0 X30.65 Y228.97
G0 X32.38 Y230.72
G0 X33.27 Y231.57
G0 X33.27 Y231.57
G0 X34.18 Y232.4
G0 X36.04 Y234
G0 X37.96 Y235.53
G0 X39.94 Y236.97
G0 X41.99 Y238.34
G0 X44.1 Y239.64
G0 X46.27 Y240.85
G0 X48.51 Y241.99
G0 X49.65 Y242.53
G0 X49.65 Y242.53
G0 X50.78 Y243.05
G0 X53.07 Y244.01
G0 X55.41 Y244.88
G0 X57.8 Y245.65
G0 X60.25 Y246.33
G0 X62.74 Y246.91
G0 X65.29 Y247.4
G0 X67.89 Y247.79
G0 X69.21 Y247.95
G0 X69.21 Y247.95
G0 X71.26 Y248.17
G0 X75.3 Y248.47
G0 X79.27 Y248.62
G0 X83.15 Y248.61
G0 X86.95 Y248.43
G0 X90.67 Y248.09
G0 X94.31 Y247.59
G0 X97.86 Y246.93
G0 X99.61 Y246.53
G0 X99.61 Y246.53
G0 X101.34 Y246.08
G0 X104.71 Y245.06
G0 X107.97 Y243.91
G0 X111.12 Y242.63
G0 X114.17 Y241.22
G0 X117.11 Y239.67
G0 X119.95 Y237.99
G0 X122.68 Y236.18
G0 X124 Y235.22
G0 X124 Y235.22
G0 X125.3 Y234.24
G0 X127.8 Y232.17
G0 X130.18 Y229.99
G0 X132.43 Y227.7
G0 X134.57 Y225.28
G0 X136.58 Y222.75
G0 X138.48 Y220.1
G0 X140.25 Y217.33
G0 X141.09 Y215.9
G0 X141.09 Y215.9
G0 X141.92 Y214.44
G0 X143.48 Y211.48
G0 X144.88 Y208.43
G0 X146.12 Y205.3
G0 X147.21 Y202.09
G0 X148.15 Y198.8
G0 X148.93 Y195.42
G0 X149.55 Y191.97
G0 X149.81 Y190.21
G0 X149.81 Y190.21
G0 X150.03 Y188.63
G0 X150.4 Y185.48
G0 X150.66 Y182.37
G0 X150.83 Y179.3
G0 X150.89 Y176.27
G0 X150.84 Y173.27
G0 X150.69 Y170.31
G0 X150.44 Y167.38
G0 X150.28 Y165.94
G0 X150.28 Y165.94
G0 X150.09 Y164.53
G0 X149.63 Y161.74
G0 X149.07 Y159.01
G0 X148.41 Y156.31
G0 X147.64 Y153.66
G0 X146.78 Y151.05
G0 X145.8 Y148.49
G0 X144.73 Y145.97
G0 X144.15 Y144.73
G0 X144.15 Y144.73
G0 X143.55 Y143.5
G0 X142.28 Y141.07
G0 X140.91 Y138.68
G0 X139.44 Y136.34
G0 X137.88 Y134.04
G0 X136.22 Y131.79
G0 X134.47 Y129.58
G0 X132.62 Y127.41
G0 X131.66 Y126.35
G0 X131.66 Y126.35
G0 X130.68 Y125.26
G0 X128.65 Y123.13
G0 X126.53 Y121.06
G0 X124.32 Y119.03
G0 X122.02 Y117.06
G0 X119.63 Y115.14
G0 X117.16 Y113.27
G0 X114.6 Y111.45
G0 X113.28 Y110.56
G0 X113.28 Y110.56
G0 X107.85 Y106.91
G0 X96.89 Y99.66
G0 X91.36 Y96.06
G0 X91.36 Y96.06
G0 X85.84 Y92.46
G0 X74.88 Y85.21
G0 X69.45 Y81.57
G0 X69.45 Y81.57
G0 Z -0
G0 F111
G0 X69.92 Y30.66
G1 F100
G0 Z 0
G0 Z0
G0 X69.92 Y30.66
G0 X69.92 Y30.66
G0 X69.93 Y30.56
G0 X69.98 Y30.44
G0 X70.04 Y30.43
G0 X70.04 Y30.43
G0 X70.18 Y30.43
G0 X70.39 Y30.43
G0 X70.39 Y30.43
G0 X69.93 Y29.6
G0 X69.11 Y27.95
G0 X68.74 Y27.13
G0 X68.74 Y27.13
G0 X68.57 Y26.71
G0 X68.31 Y25.86
G0 X68.13 Y24.98
G0 X68.04 Y24.06
G0 X68.03 Y23.6
G0 X68.03 Y23.6
G0 X68.68 Y23.8
G0 X69.21 Y23.95
G0 X69.21 Y23.95
G0 X69.43 Y24.01
G0 X69.78 Y24.19
G0 X69.92 Y24.3
G0 X69.92 Y24.3
G0 X69.95 Y22.39
G0 X70.04 Y20.41
G0 X70.04 Y20.41
G0 X70.08 Y19.91
G0 X70.27 Y18.93
G0 X70.6 Y17.96
G0 X71.05 Y17
G0 X71.33 Y16.53
G0 X71.33 Y16.53
G0 X71.57 Y16.66
G0 X72.1 Y17.01
G0 X72.39 Y17.23
G0 X72.39 Y17.23
G0 X72.66 Y17.47
G0 X73.08 Y17.94
G0 X73.22 Y18.17
G0 X73.22 Y18.17
G0 X73.69 Y18.68
G0 X74.16 Y19.24
G0 X74.16 Y19.24
G0 X74.63 Y19.8
G0 X75.1 Y20.3
G0 X75.1 Y20.06
G0 X75.1 Y20.06
G0 X75.11 Y19.71
G0 X75.17 Y19
G0 X75.22 Y18.65
G0 X75.22 Y18.65
G0 X75.26 Y18.29
G0 X75.2 Y17.59
G0 X75.1 Y17.23
G0 X75.1 Y17.23
G0 X75.07 Y16.5
G0 X74.98 Y15.7
G0 X74.98 Y15.7
G0 X74.92 Y15.3
G0 X74.74 Y14.53
G0 X74.63 Y14.17
G0 X74.63 Y14.17
G0 X74.73 Y14.05
G0 X74.85 Y13.82
G0 X74.87 Y13.7
G0 X74.87 Y13.7
G0 X75.34 Y13.48
G0 X76.28 Y13.12
G0 X76.75 Y12.99
G0 X76.75 Y12.99
G0 X77.24 Y12.89
G0 X78.3 Y12.77
G0 X78.87 Y12.75
G0 X78.87 Y12.75
G0 X79.34 Y12.66
G0 X80.29 Y12.6
G0 X80.76 Y12.64
G0 X80.76 Y12.64
G0 X81.23 Y12.72
G0 X82.17 Y13.01
G0 X82.64 Y13.23
G0 X82.64 Y13.23
G0 X83.29 Y13.46
G0 X83.82 Y13.7
G0 X83.82 Y13.7
G0 X84.35 Y13.93
G0 X85 Y14.17
G0 X85 Y14.17
G0 X85.01 Y13.94
G0 X85.07 Y13.53
G0 X85.12 Y13.34
G0 X85.12 Y13.34
G0 X85.26 Y12.96
G0 X85.47 Y12.52
G0 X85.47 Y12.52
G0 X85.99 Y12.82
G0 X86.95 Y13.49
G0 X87.8 Y14.22
G0 X88.55 Y15.03
G0 X88.89 Y15.46
G0 X88.89 Y15.46
G0 X89.2 Y15.92
G0 X89.74 Y16.91
G0 X90.19 Y18
G0 X90.53 Y19.19
G0 X90.66 Y19.82
G0 X90.66 Y19.82
G0 X90.89 Y19.59
G0 X91.13 Y19.35
G0 X91.13 Y19.35
G0 X91.36 Y19.12
G0 X91.6 Y18.88
G0 X91.6 Y18.88
G0 X91.61 Y19
G0 X91.66 Y19.24
G0 X91.72 Y19.35
G0 X91.72 Y19.35
G0 X91.86 Y19.59
G0 X92.07 Y19.82
G0 X92.07 Y19.82
G0 X92.18 Y20.19
G0 X92.36 Y20.95
G0 X92.42 Y21.36
G0 X92.42 Y21.36
G0 X92.51 Y22.15
G0 X92.54 Y22.89
G0 X92.54 Y22.89
G0 X92.54 Y23.59
G0 X92.54 Y24.3
G0 X92.54 Y24.3
G0 X92.54 Y25.01
G0 X92.54 Y25.72
G0 X92.54 Y25.72
G0 X92.4 Y26.42
G0 X91.99 Y27.84
G0 X91.72 Y28.54
G0 X91.72 Y28.54
G0 X91.41 Y29.24
G0 X90.77 Y30.53
G0 X90.42 Y31.14
G0 X90.42 Y31.14
G0 X90.18 Y31.61
G0 X89.95 Y32.08
G0 X89.95 Y32.08
G0 X89.71 Y32.61
G0 X89.48 Y33.26
G0 X89.48 Y33.26
G0 X89.21 Y33.96
G0 X88.89 Y34.67
G0 X88.89 Y34.67
G0 X88.73 Y35.04
G0 X88.56 Y35.86
G0 X88.54 Y36.32
G0 X88.3 Y36.56
G0 X88.3 Y36.56
G0 X87.83 Y36.89
G0 X86.88 Y37.48
G0 X86.42 Y37.73
G0 X86.42 Y37.73
G0 X85.93 Y37.96
G0 X84.87 Y38.31
G0 X84.29 Y38.44
G0 X83.59 Y38.21
G0 X83.59 Y38.21
G0 X83 Y38.59
G0 X82.64 Y38.8
G0 X82.64 Y38.8
G0 X82.5 Y38.85
G0 X82.02 Y38.91
G0 X81.7 Y38.91
G0 X81.47 Y38.91
G0 X81.47 Y38.91
G0 X81.05 Y38.91
G0 X80.24 Y38.85
G0 X79.45 Y38.73
G0 X78.67 Y38.55
G0 X78.28 Y38.44
G0 X78.28 Y38.44
G0 X77.52 Y38.19
G0 X76.05 Y37.6
G0 X75.34 Y37.26
G0 X75.34 Y37.26
G0 X75.22 Y37.25
G0 X74.98 Y37.13
G0 X74.87 Y37.03
G0 X74.87 Y37.03
G0 X74.75 Y36.92
G0 X74.51 Y36.81
G0 X74.4 Y36.79
G0 X74.4 Y36.79
G0 X74.41 Y36.69
G0 X74.53 Y36.57
G0 X74.63 Y36.56
G0 X74.63 Y36.56
G0 X74.51 Y36.45
G0 X74.21 Y36.34
G0 X74.04 Y36.32
G0 X74.04 Y36.32
G0 X73.87 Y36.31
G0 X73.58 Y36.19
G0 X73.45 Y36.09
G0 X73.45 Y36.09
G0 X72.88 Y35.61
G0 X71.82 Y34.61
G0 X71.33 Y34.08
G0 X71.33 Y34.08
G0 X70.87 Y33.53
G0 X70.05 Y32.29
G0 X69.68 Y31.61
G0 X69.68 Y31.61
G0 X69.65 Y31.37
G0 X69.56 Y31.14
G0 X69.56 Y31.14
G0 X69.41 Y30.9
G0 X69.21 Y30.66
G0 X69.21 Y30.66
G0 X69.41 Y30.66
G0 X69.56 Y30.66
G0 X69.56 Y30.66
G0 X69.71 Y30.66
G0 X69.92 Y30.66
G0 X69.92 Y30.66
G0 Z -0
G0 F111
G0 X71.33 Y25.95
G1 F100
G0 Z 0
G0 Z0
G0 X71.33 Y25.95
G0 X71.33 Y25.95
G0 X70.68 Y25.71
G0 X70.15 Y25.48
G0 X70.15 Y25.48
G0 X69.68 Y25.24
G0 X69.21 Y25.01
G0 X69.21 Y25.01
G0 X69.28 Y25.42
G0 X69.45 Y26.23
G0 X69.69 Y27.02
G0 X69.98 Y27.8
G0 X70.15 Y28.19
G0 X70.15 Y28.19
G0 X70.54 Y28.95
G0 X71.48 Y30.42
G0 X72.04 Y31.14
G0 X72.04 Y31.14
G0 X71.77 Y31.17
G0 X71.45 Y31.25
G0 X71.45 Y31.25
G0 X71.27 Y31.31
G0 X70.85 Y31.36
G0 X70.62 Y31.37
G0 X70.62 Y31.37
G0 X70.78 Y31.74
G0 X71.31 Y32.56
G0 X71.69 Y33.02
G0 X71.69 Y33.02
G0 X72.48 Y33.9
G0 X73.22 Y34.67
G0 X73.22 Y34.67
G0 X73.23 Y34.38
G0 X73.3 Y33.84
G0 X73.45 Y33.34
G0 X73.67 Y32.88
G0 X73.81 Y32.67
G0 X73.81 Y32.67
G0 X73.96 Y32.47
G0 X74.33 Y32.13
G0 X74.77 Y31.87
G0 X75.29 Y31.67
G0 X75.57 Y31.61
G0 X75.57 Y31.61
G0 X75.54 Y31.87
G0 X75.46 Y32.2
G0 X75.46 Y32.2
G0 X75.37 Y32.52
G0 X75.34 Y32.79
G0 X75.34 Y32.79
G0 X75.13 Y33.26
G0 X74.98 Y33.73
G0 X74.98 Y33.73
G0 X74.95 Y33.98
G0 X75.01 Y34.57
G0 X75.1 Y34.91
G0 X75.1 Y34.91
G0 X75.13 Y35.12
G0 X75.24 Y35.36
G0 X75.37 Y35.46
G0 X75.46 Y35.5
G0 X75.46 Y35.5
G0 X75.64 Y35.55
G0 X76.05 Y35.61
G0 X76.28 Y35.61
G0 X76.28 Y35.61
G0 X76.69 Y35.41
G0 X76.99 Y35.26
G0 X76.99 Y35.26
G0 X77.22 Y35.11
G0 X77.46 Y34.91
G0 X77.69 Y34.67
G0 X77.69 Y34.67
G0 X77.78 Y35.02
G0 X77.8 Y35.51
G0 X77.75 Y35.82
G0 X77.69 Y35.97
G0 X77.69 Y35.97
G0 X77.55 Y36.25
G0 X77.08 Y36.78
G0 X76.75 Y37.03
G0 X76.75 Y37.03
G0 X77.4 Y37.23
G0 X77.93 Y37.38
G0 X77.93 Y37.38
G0 X78.4 Y37.53
G0 X78.87 Y37.73
G0 X78.87 Y37.73
G0 X79.64 Y37.76
G0 X80.52 Y37.85
G0 X80.52 Y37.85
G0 X81.41 Y37.94
G0 X82.17 Y37.97
G0 X82.17 Y37.97
G0 X82.29 Y37.96
G0 X82.53 Y37.84
G0 X82.64 Y37.73
G0 X82.64 Y37.73
G0 X82.86 Y37.61
G0 X83.22 Y37.31
G0 X83.35 Y37.15
G0 X83.35 Y37.15
G0 X83.48 Y36.98
G0 X83.84 Y36.68
G0 X84.06 Y36.56
G0 X84.06 Y36.56
G0 X84.26 Y36.32
G0 X84.41 Y36.08
G0 X84.41 Y36.08
G0 X84.56 Y35.85
G0 X84.77 Y35.61
G0 X84.77 Y35.38
G0 X84.77 Y35.38
G0 X84.77 Y35.11
G0 X84.77 Y34.79
G0 X84.77 Y34.79
G0 X84.75 Y34.62
G0 X84.63 Y34.32
G0 X84.53 Y34.2
G0 X84.53 Y34.2
G0 X84.26 Y34.43
G0 X83.94 Y34.67
G0 X83.94 Y34.67
G0 X83.62 Y34.91
G0 X83.35 Y35.14
G0 X83.35 Y35.14
G0 X83.23 Y35.16
G0 X82.93 Y35.27
G0 X82.76 Y35.38
G0 X82.76 Y35.38
G0 X82.44 Y35.61
G0 X82.17 Y35.85
G0 X82.17 Y35.85
G0 X81.94 Y35.85
G0 X81.7 Y35.85
G0 X81.7 Y35.85
G0 X81.24 Y35.72
G0 X80.35 Y35.43
G0 X79.93 Y35.26
G0 X79.93 Y35.26
G0 X79.08 Y34.88
G0 X78.17 Y34.44
G0 X78.17 Y34.2
G0 X77.93 Y34.2
G0 X77.93 Y34.2
G0 X78.14 Y33.99
G0 X78.28 Y33.85
G0 X78.28 Y33.85
G0 X78.35 Y33.79
G0 X78.53 Y33.74
G0 X78.64 Y33.73
G0 X78.64 Y33.73
G0 X78.3 Y33.6
G0 X77.71 Y33.31
G0 X77.46 Y33.14
G0 X77.46 Y33.14
G0 X77.24 Y32.95
G0 X76.88 Y32.54
G0 X76.75 Y32.31
G0 X76.75 Y32.31
G0 X76.88 Y32.3
G0 X77.24 Y32.18
G0 X77.46 Y32.08
G0 X77.46 Y32.08
G0 X77.56 Y32.06
G0 X77.68 Y31.95
G0 X77.69 Y31.84
G0 X77.69 Y31.84
G0 X77.83 Y31.5
G0 X78.18 Y30.91
G0 X78.4 Y30.66
G0 X78.4 Y30.66
G0 X78.64 Y30.44
G0 X79.11 Y30.09
G0 X79.34 Y29.96
G0 X79.34 Y29.96
G0 X79.57 Y29.95
G0 X79.99 Y29.89
G0 X80.17 Y29.84
G0 X80.17 Y29.84
G0 X80.35 Y29.79
G0 X80.77 Y29.73
G0 X80.99 Y29.72
G0 X80.99 Y29.72
G0 X81.49 Y29.75
G0 X82.05 Y29.84
G0 X82.05 Y29.84
G0 X82.34 Y29.88
G0 X82.87 Y29.82
G0 X83.12 Y29.72
G0 X83.12 Y29.72
G0 X83.35 Y29.72
G0 X83.59 Y29.72
G0 X83.59 Y29.72
G0 X83.88 Y29.72
G0 X84.29 Y29.72
G0 X84.29 Y29.72
G0 X84.06 Y29.93
G0 X83.82 Y30.08
G0 X83.82 Y30.08
G0 X83.58 Y30.22
G0 X83.35 Y30.43
G0 X83.35 Y30.43
G0 X83.34 Y30.53
G0 X83.28 Y30.65
G0 X83.23 Y30.66
G0 X83.23 Y30.66
G0 X83.18 Y30.68
G0 X83.12 Y30.8
G0 X83.12 Y30.9
G0 X83.12 Y30.9
G0 X82.88 Y31.11
G0 X82.41 Y31.41
G0 X82.17 Y31.49
G0 X82.17 Y31.49
G0 X81.7 Y31.58
G0 X81.23 Y31.61
G0 X81.23 Y31.61
G0 X80.88 Y31.62
G0 X80.23 Y31.74
G0 X79.93 Y31.84
G0 X79.93 Y31.84
G0 X79.37 Y32.08
G0 X78.87 Y32.31
G0 X78.87 Y32.31
G0 X79 Y32.53
G0 X79.36 Y32.89
G0 X79.58 Y33.02
G0 X79.58 Y33.02
G0 X79.82 Y33.12
G0 X80.29 Y33.24
G0 X80.52 Y33.26
G0 X80.76 Y33.26
G0 X80.76 Y33.26
G0 X80.99 Y33.24
G0 X81.46 Y33.12
G0 X81.7 Y33.02
G0 X81.7 Y33.02
G0 X82.17 Y32.78
G0 X82.64 Y32.55
G0 X82.64 Y32.55
G0 X82.88 Y32.75
G0 X83.12 Y32.9
G0 X83.12 Y32.9
G0 X83.35 Y32.99
G0 X83.59 Y33.02
G0 X83.59 Y33.02
G0 X83.56 Y32.78
G0 X83.47 Y32.55
G0 X83.47 Y32.55
G0 X83.38 Y32.31
G0 X83.35 Y32.08
G0 X83.59 Y31.84
G0 X83.59 Y31.84
G0 X83.72 Y31.61
G0 X84.07 Y31.13
G0 X84.29 Y30.9
G0 X84.29 Y30.9
G0 X84.7 Y30.49
G0 X85 Y30.19
G0 X85 Y30.19
G0 X85.1 Y30.18
G0 X85.22 Y30.06
G0 X85.24 Y29.96
G0 X85.24 Y29.96
G0 X85.69 Y30.16
G0 X86.52 Y30.4
G0 X86.89 Y30.43
G0 X86.89 Y30.43
G0 X87.25 Y30.4
G0 X88.08 Y30.16
G0 X88.54 Y29.96
G0 X88.54 Y29.96
G0 X88.3 Y30.19
G0 X88.06 Y30.43
G0 X88.06 Y30.43
G0 X87.83 Y30.66
G0 X87.59 Y30.9
G0 X87.59 Y30.9
G0 X87.36 Y31.13
G0 X87.12 Y31.37
G0 X87.12 Y31.37
G0 X86.88 Y31.61
G0 X86.65 Y31.84
G0 X86.65 Y31.84
G0 X86.44 Y32.08
G0 X86.3 Y32.31
G0 X86.3 Y32.31
G0 X86.15 Y32.55
G0 X85.94 Y32.79
G0 X85.94 Y32.79
G0 X86.16 Y32.77
G0 X86.52 Y32.65
G0 X86.65 Y32.55
G0 X86.65 Y32.55
G0 X86.77 Y32.45
G0 X87 Y32.33
G0 X87.12 Y32.31
G0 X87.12 Y32.31
G0 X87.24 Y32.33
G0 X87.47 Y32.45
G0 X87.59 Y32.55
G0 X87.59 Y32.55
G0 X87.71 Y32.64
G0 X87.95 Y32.64
G0 X88.06 Y32.55
G0 X88.06 Y32.55
G0 X88.17 Y32.43
G0 X88.29 Y32.2
G0 X88.3 Y32.08
G0 X88.3 Y32.08
G0 X88.29 Y31.95
G0 X88.17 Y31.59
G0 X88.06 Y31.37
G0 X88.06 Y31.37
G0 X88.3 Y31.13
G0 X88.54 Y30.9
G0 X88.54 Y30.9
G0 X88.77 Y30.66
G0 X89.01 Y30.43
G0 X89.01 Y30.43
G0 X89.04 Y30.66
G0 X89.12 Y30.9
G0 X89.12 Y30.9
G0 X89.16 Y31.02
G0 X89.1 Y31.25
G0 X89.01 Y31.37
G0 X89.01 Y31.37
G0 X88.98 Y31.64
G0 X88.89 Y31.96
G0 X88.89 Y31.96
G0 X88.74 Y32.34
G0 X88.54 Y32.79
G0 X88.54 Y32.79
G0 X88.53 Y32.89
G0 X88.47 Y33.07
G0 X88.42 Y33.14
G0 X88.42 Y33.14
G0 X88.35 Y33.19
G0 X88.17 Y33.25
G0 X88.06 Y33.26
G0 X88.06 Y33.26
G0 X87.71 Y33.6
G0 X87 Y34.18
G0 X86.65 Y34.44
G0 X86.65 Y34.44
G0 X85.94 Y34.91
G0 X85.24 Y35.38
G0 X85 Y35.61
G0 X85 Y35.61
G0 X85 Y36.08
G0 X85 Y36.56
G0 X85 Y36.56
G0 X85 Y37.03
G0 X85 Y37.5
G0 X85 Y37.5
G0 X85.26 Y37.26
G0 X85.59 Y37.03
G0 X85.59 Y37.03
G0 X85.77 Y36.92
G0 X86.19 Y36.81
G0 X86.41 Y36.79
G0 X86.41 Y36.79
G0 X86.65 Y36.56
G0 X86.89 Y36.32
G0 X86.89 Y36.32
G0 X87 Y36.22
G0 X87.24 Y36.1
G0 X87.36 Y36.08
G0 X87.59 Y35.85
G0 X87.59 Y35.61
G0 X87.59 Y35.61
G0 X87.7 Y35.48
G0 X87.88 Y35.13
G0 X87.95 Y34.91
G0 X87.95 Y34.91
G0 X88.03 Y34.43
G0 X88.06 Y33.96
G0 X88.06 Y33.96
G0 X88.3 Y33.46
G0 X88.54 Y32.9
G0 X88.54 Y32.9
G0 X88.77 Y32.34
G0 X89.01 Y31.84
G0 X89.01 Y31.84
G0 X89.21 Y31.43
G0 X89.36 Y31.14
G0 X89.36 Y31.14
G0 X89.51 Y30.9
G0 X89.71 Y30.66
G0 X89.71 Y30.66
G0 X90.05 Y30.07
G0 X90.64 Y28.83
G0 X90.89 Y28.19
G0 X90.89 Y28.19
G0 X91.11 Y27.55
G0 X91.47 Y26.31
G0 X91.6 Y25.72
G0 X91.6 Y25.72
G0 X91.6 Y24.98
G0 X91.6 Y24.18
G0 X91.6 Y24.18
G0 X91.6 Y23.39
G0 X91.6 Y22.65
G0 X91.6 Y22.65
G0 X91.57 Y22.18
G0 X91.48 Y21.71
G0 X91.48 Y21.71
G0 X91.43 Y21.48
G0 X91.37 Y21
G0 X91.36 Y20.77
G0 X91.13 Y20.77
G0 X91.13 Y20.77
G0 X90.89 Y21.03
G0 X90.66 Y21.36
G0 X90.66 Y21.36
G0 X90.52 Y21.53
G0 X90.17 Y21.82
G0 X89.95 Y21.95
G0 X89.95 Y21.95
G0 X89.95 Y21.68
G0 X89.95 Y21.36
G0 X89.95 Y21.36
G0 X89.95 Y21.03
G0 X89.95 Y20.77
G0 X89.95 Y20.77
G0 X89.88 Y20.24
G0 X89.66 Y19.24
G0 X89.33 Y18.3
G0 X88.91 Y17.42
G0 X88.65 Y17
G0 X88.65 Y17
G0 X88.38 Y16.59
G0 X87.77 Y15.79
G0 X87.1 Y15.03
G0 X86.35 Y14.29
G0 X85.94 Y13.93
G0 X85.94 Y13.93
G0 X85.94 Y14.16
G0 X85.88 Y14.57
G0 X85.83 Y14.76
G0 X85.83 Y14.76
G0 X85.68 Y15.14
G0 X85.47 Y15.58
G0 X85.47 Y15.58
G0 X85.36 Y15.57
G0 X85.18 Y15.52
G0 X85.12 Y15.46
G0 X85.12 Y15.46
G0 X85.05 Y15.41
G0 X84.87 Y15.35
G0 X84.77 Y15.35
G0 X84.77 Y15.35
G0 X84.06 Y14.91
G0 X82.64 Y14.2
G0 X81.94 Y13.93
G0 X81.94 Y13.93
G0 X81.58 Y13.83
G0 X80.84 Y13.68
G0 X80.08 Y13.62
G0 X79.28 Y13.65
G0 X78.87 Y13.7
G0 X78.87 Y13.7
G0 X78.17 Y13.73
G0 X77.46 Y13.81
G0 X77.46 Y13.81
G0 X77.11 Y13.9
G0 X76.4 Y14.19
G0 X76.04 Y14.4
G0 X76.04 Y14.4
G0 X75.94 Y14.42
G0 X75.82 Y14.54
G0 X75.81 Y14.64
G0 X75.81 Y14.64
G0 X76.01 Y15.79
G0 X76.16 Y16.88
G0 X76.16 Y16.88
G0 X76.2 Y17.4
G0 X76.14 Y18.4
G0 X76.04 Y18.88
G0 X76.04 Y18.88
G0 X76.02 Y19.62
G0 X75.93 Y20.41
G0 X75.93 Y20.41
G0 X75.86 Y20.82
G0 X75.68 Y21.59
G0 X75.57 Y21.95
G0 X75.57 Y21.95
G0 X75.35 Y21.94
G0 X75 Y21.88
G0 X74.87 Y21.83
G0 X74.87 Y21.83
G0 X74.76 Y21.75
G0 X74.65 Y21.45
G0 X74.63 Y21.24
G0 X74.63 Y21.24
G0 X74.28 Y20.88
G0 X73.64 Y20.11
G0 X73.33 Y19.71
G0 X73.33 Y19.71
G0 X73.02 Y19.3
G0 X72.25 Y18.54
G0 X71.8 Y18.17
G0 X71.8 Y18.17
G0 X71.79 Y18.07
G0 X71.67 Y17.95
G0 X71.57 Y17.94
G0 X71.57 Y17.94
G0 X71.4 Y18.41
G0 X71.14 Y19.37
G0 X70.96 Y20.34
G0 X70.87 Y21.33
G0 X70.86 Y21.83
G0 X70.86 Y21.83
G0 X70.89 Y22.84
G0 X71.12 Y24.9
G0 X71.33 Y25.95
G0 X71.33 Y25.95
G0 Z -0
G0 F111
G0 X73.45 Y41.03
G1 F100
G0 Z 0
G0 Z0
G0 X73.45 Y41.03
G0 X73.22 Y40.8
G0 X73.22 Y40.8
G0 X73.55 Y40.44
G0 X74.08 Y39.67
G0 X74.28 Y39.27
G0 X74.28 Y39.27
G0 X74.45 Y38.85
G0 X74.74 Y37.96
G0 X74.87 Y37.5
G0 X74.87 Y37.5
G0 X75.46 Y37.84
G0 X76.67 Y38.41
G0 X77.9 Y38.85
G0 X79.17 Y39.16
G0 X79.82 Y39.27
G0 X79.82 Y39.27
G0 X80.46 Y39.33
G0 X81.76 Y39.35
G0 X83.05 Y39.2
G0 X84.35 Y38.89
G0 X85 Y38.68
G0 X85 Y38.68
G0 X85.01 Y39.14
G0 X85.07 Y40.02
G0 X85.12 Y40.44
G0 X85.12 Y40.44
G0 X85.2 Y40.86
G0 X85.49 Y41.75
G0 X85.71 Y42.21
G0 X85.71 Y42.21
G0 X85.23 Y41.77
G0 X84.77 Y41.39
G0 X84.77 Y41.39
G0 X84.29 Y41
G0 X83.82 Y40.56
G0 X83.82 Y40.56
G0 X83.79 Y41.27
G0 X83.7 Y41.98
G0 X83.7 Y41.98
G0 X83.65 Y42.33
G0 X83.59 Y43.04
G0 X83.59 Y43.39
G0 X83.59 Y43.39
G0 X82.91 Y42.68
G0 X82.29 Y41.98
G0 X82.29 Y41.98
G0 X81.73 Y41.27
G0 X81.23 Y40.56
G0 X81.23 Y40.56
G0 X80.76 Y41.27
G0 X80.29 Y41.98
G0 X80.29 Y41.98
G0 X79.81 Y42.68
G0 X79.34 Y43.39
G0 X79.34 Y43.39
G0 X79.11 Y42.65
G0 X78.87 Y41.86
G0 X78.87 Y41.86
G0 X78.74 Y41.45
G0 X78.39 Y40.69
G0 X78.17 Y40.33
G0 X78.17 Y40.33
G0 X77.43 Y40.8
G0 X76.63 Y41.27
G0 X76.63 Y41.27
G0 X76.23 Y41.52
G0 X75.46 Y42.11
G0 X75.1 Y42.45
G0 X75.1 Y42.45
G0 X75.11 Y42.09
G0 X75.17 Y41.39
G0 X75.22 Y41.03
G0 X75.22 Y41.03
G0 X75.29 Y40.68
G0 X75.46 Y39.97
G0 X75.57 Y39.62
G0 X75.57 Y39.62
G0 X75.45 Y39.73
G0 X75.15 Y39.91
G0 X74.98 Y39.97
G0 X74.98 Y39.97
G0 X74.82 Y40.04
G0 X74.52 Y40.22
G0 X74.4 Y40.33
G0 X74.4 Y40.33
G0 X74.16 Y40.53
G0 X73.92 Y40.68
G0 X73.92 Y40.68
G0 X73.69 Y40.83
G0 X73.45 Y41.03
G0 X73.45 Y41.03
G0 Z -0
G0 F111
G0 X75.1 Y36.56
G1 F100
G0 Z 0
G0 Z0
G0 X75.1 Y36.56
G0 X75.1 Y36.56
G0 X75.34 Y36.56
G0 X75.57 Y36.56
G0 X75.57 Y36.56
G0 X75.45 Y36.45
G0 X75.15 Y36.27
G0 X74.98 Y36.2
G0 X74.98 Y36.2
G0 X74.82 Y36.14
G0 X74.52 Y35.96
G0 X74.4 Y35.85
G0 X74.4 Y35.85
G0 X74.5 Y35.96
G0 X74.62 Y36.14
G0 X74.63 Y36.2
G0 X74.63 Y36.2
G0 X74.63 Y36.35
G0 X74.63 Y36.56
G0 X74.63 Y36.56
G0 X74.87 Y36.56
G0 X75.1 Y36.56
G0 X75.1 Y36.56
G0 Z -0
G0 F111
G0 X85.24 Y29.49
G1 F100
G0 Z 0
G0 Z0
G0 X85.24 Y29.49
G0 X85.24 Y29.49
G0 X84.77 Y29.35
G0 X83.89 Y29
G0 X83.47 Y28.78
G0 X83.47 Y28.78
G0 X83.06 Y28.53
G0 X82.3 Y27.94
G0 X81.94 Y27.6
G0 X81.94 Y27.6
G0 X82.17 Y27.1
G0 X82.41 Y26.54
G0 X82.41 Y26.54
G0 X82.64 Y25.98
G0 X82.88 Y25.48
G0 X82.88 Y25.48
G0 X83.09 Y25.27
G0 X83.39 Y25.04
G0 X83.47 Y25.01
G0 X83.47 Y25.01
G0 X83.67 Y25.01
G0 X84.06 Y25.01
G0 X84.06 Y25.01
G0 X84.51 Y25.14
G0 X85.34 Y25.49
G0 X85.71 Y25.72
G0 X85.71 Y25.72
G0 X86.05 Y25.95
G0 X86.63 Y26.42
G0 X86.89 Y26.66
G0 X86.89 Y26.66
G0 X86.99 Y26.67
G0 X87.11 Y26.79
G0 X87.12 Y26.89
G0 X87.12 Y26.89
G0 X87.12 Y27.34
G0 X87.12 Y27.72
G0 X87.12 Y27.72
G0 X87.12 Y28.04
G0 X87.12 Y28.31
G0 X87.12 Y28.31
G0 X87.11 Y28.41
G0 X87.05 Y28.53
G0 X87 Y28.54
G0 X87 Y28.54
G0 X86.95 Y28.56
G0 X86.89 Y28.68
G0 X86.89 Y28.78
G0 X86.89 Y28.78
G0 X86.76 Y28.79
G0 X86.47 Y28.91
G0 X86.3 Y29.01
G0 X86.3 Y29.01
G0 X85.97 Y29.25
G0 X85.71 Y29.49
G0 X85.71 Y29.49
G0 X85.47 Y29.49
G0 X85.24 Y29.49
G0 X85.24 Y29.49
G0 Z -0
G0 F111
G0 X88.3 Y24.77
G1 F100
G0 Z 0
G0 Z0
G0 X88.3 Y24.77
G0 X88.3 Y24.77
G0 X88.09 Y24.98
G0 X87.95 Y25.13
G0 X87.95 Y25.13
G0 X87.88 Y25.18
G0 X87.7 Y25.24
G0 X87.59 Y25.24
G0 X87.59 Y25.24
G0 X87.48 Y25.14
G0 X87.3 Y25.02
G0 X87.24 Y25.01
G0 X87.24 Y25.01
G0 X87.19 Y25.02
G0 X87.13 Y25.14
G0 X87.12 Y25.24
G0 X87.12 Y25.24
G0 X86.99 Y25.23
G0 X86.63 Y25.11
G0 X86.42 Y25.01
G0 X86.42 Y25.01
G0 X86.16 Y24.77
G0 X85.57 Y24.3
G0 X85.24 Y24.07
G0 X85.24 Y24.07
G0 X84.88 Y23.86
G0 X84.18 Y23.62
G0 X83.82 Y23.6
G0 X83.82 Y23.6
G0 X84.06 Y23.12
G0 X84.29 Y22.65
G0 X84.29 Y22.65
G0 X84.53 Y22.18
G0 X84.77 Y21.71
G0 X84.77 Y21.71
G0 X85.23 Y21.97
G0 X85.71 Y22.3
G0 X85.71 Y22.3
G0 X85.96 Y22.47
G0 X86.55 Y22.76
G0 X86.89 Y22.89
G0 X86.89 Y22.89
G0 X86.89 Y22.42
G0 X86.89 Y21.95
G0 X86.89 Y21.95
G0 X86.9 Y21.73
G0 X87.02 Y21.37
G0 X87.12 Y21.24
G0 X87.12 Y21.24
G0 X87.35 Y21.36
G0 X87.76 Y21.66
G0 X87.95 Y21.83
G0 X87.95 Y21.83
G0 X88.12 Y22.01
G0 X88.41 Y22.42
G0 X88.54 Y22.65
G0 X88.54 Y22.65
G0 X88.63 Y22.99
G0 X88.69 Y23.58
G0 X88.65 Y23.83
G0 X88.65 Y23.83
G0 X88.5 Y24.3
G0 X88.3 Y24.77
G0 X88.3 Y24.77
G0 Z -0
G0 F111
G0 X88.06 Y28.54
G1 F100
G0 Z 0
G0 Z0
G0 X88.06 Y28.54
G0 X88.06 Y28.31
G0 X88.06 Y28.31
G0 X88.06 Y28.04
G0 X88.06 Y27.72
G0 X88.06 Y27.72
G0 X88.06 Y27.34
G0 X88.06 Y26.89
G0 X88.06 Y26.66
G0 X88.06 Y26.66
G0 X88.48 Y26.22
G0 X88.77 Y25.83
G0 X88.77 Y25.83
G0 X89.06 Y25.45
G0 X89.48 Y25.01
G0 X89.48 Y25.01
G0 X89.59 Y25.3
G0 X89.75 Y25.88
G0 X89.84 Y26.44
G0 X89.85 Y26.98
G0 X89.83 Y27.25
G0 X89.83 Y27.25
G0 X89.75 Y27.77
G0 X89.46 Y28.77
G0 X89.24 Y29.25
G0 X89.24 Y29.25
G0 X89.12 Y29.24
G0 X88.82 Y29.12
G0 X88.65 Y29.01
G0 X88.65 Y29.01
G0 X88.33 Y28.78
G0 X88.06 Y28.54
G0 X88.06 Y28.54
G0 Z -0
G0 F111
G0 X215.44 Y81.57
G1 F100
G0 Z 0
G0 Z0
G0 X215.44 Y81.57
G0 X215.44 Y81.57
G0 X214.42 Y80.85
G0 X212.46 Y79.39
G0 X210.59 Y77.86
G0 X208.83 Y76.28
G0 X207.16 Y74.65
G0 X205.6 Y72.96
G0 X204.13 Y71.21
G0 X202.77 Y69.41
G0 X202.12 Y68.49
G0 X202.12 Y68.49
G0 X201.81 Y68.02
G0 X201.23 Y67.06
G0 X200.7 Y66.07
G0 X200.23 Y65.04
G0 X199.8 Y63.99
G0 X199.43 Y62.9
G0 X198.97 Y61.2
G0 X198.55 Y58.83
G0 X198.33 Y56.33
G0 X198.32 Y53.7
G0 X198.52 Y50.94
G0 X198.71 Y49.52
G0 X198.71 Y49.52
G0 X201.65 Y49.52
G0 X204.36 Y49.52
G0 X204.36 Y49.52
G0 X206.95 Y49.52
G0 X209.54 Y49.52
G0 X209.54 Y49.52
G0 X219.85 Y49.52
G0 X230.05 Y49.52
G0 X230.05 Y49.52
G0 X240.39 Y49.52
G0 X250.67 Y49.52
G0 X250.67 Y49.52
G0 X260.89 Y49.52
G0 X271.05 Y49.52
G0 X271.05 Y49.52
G0 X276.22 Y49.43
G0 X283.92 Y49.41
G0 X289.02 Y49.47
G0 X291.56 Y49.52
G0 X291.56 Y49.52
G0 X292.24 Y49.5
G0 X293.43 Y49.38
G0 X294.4 Y49.15
G0 X295.15 Y48.8
G0 X295.45 Y48.58
G0 X295.45 Y48.58
G0 X295.57 Y48.45
G0 X295.81 Y48.15
G0 X296.09 Y47.57
G0 X296.36 Y46.57
G0 X296.49 Y45.3
G0 X296.51 Y44.57
G0 X296.51 Y44.57
G0 X296.51 Y35.35
G0 X296.51 Y26.07
G0 X296.51 Y26.07
G0 X296.51 Y16.73
G0 X296.51 Y7.33
G0 X296.51 Y7.33
G0 X278.89 Y7.33
G0 X261.39 Y7.33
G0 X261.39 Y7.33
G0 X243.95 Y7.33
G0 X226.51 Y7.33
G0 X226.51 Y7.33
G0 X209.07 Y7.33
G0 X191.63 Y7.33
G0 X191.63 Y7.33
G0 X174.02 Y7.33
G0 X156.52 Y7.33
G0 X156.52 Y7.33
G0 X156.5 Y12.85
G0 X156.39 Y23.75
G0 X156.28 Y29.13
G0 X156.28 Y29.13
G0 X156.24 Y31.81
G0 X156.24 Y37.16
G0 X156.36 Y42.49
G0 X156.59 Y47.81
G0 X156.76 Y50.46
G0 X156.76 Y50.46
G0 X156.88 Y52.17
G0 X157.21 Y55.57
G0 X157.62 Y58.96
G0 X158.12 Y62.33
G0 X158.41 Y64.01
G0 X158.41 Y64.01
G0 X158.72 Y65.69
G0 X159.45 Y69.03
G0 X160.34 Y72.36
G0 X161.37 Y75.67
G0 X161.94 Y77.33
G0 X161.94 Y77.33
G0 X162.49 Y78.9
G0 X163.7 Y81.98
G0 X165.05 Y84.95
G0 X166.55 Y87.81
G0 X168.2 Y90.56
G0 X170 Y93.21
G0 X171.94 Y95.75
G0 X174.04 Y98.18
G0 X175.14 Y99.36
G0 X175.14 Y99.36
G0 X176.26 Y100.52
G0 X178.56 Y102.79
G0 X180.92 Y105.01
G0 X183.33 Y107.17
G0 X185.81 Y109.27
G0 X188.34 Y111.32
G0 X190.93 Y113.32
G0 X193.59 Y115.26
G0 X194.93 Y116.21
G0 X194.93 Y116.21
G0 X200.11 Y119.75
G0 X210.42 Y126.88
G0 X215.55 Y130.47
G0 X215.55 Y130.47
G0 X220.69 Y134.06
G0 X231 Y141.18
G0 X236.18 Y144.73
G0 X236.18 Y144.73
G0 X237.28 Y145.5
G0 X239.4 Y147.1
G0 X241.4 Y148.75
G0 X243.29 Y150.47
G0 X245.06 Y152.25
G0 X246.71 Y154.1
G0 X248.24 Y156.01
G0 X249.65 Y157.98
G0 X250.32 Y158.99
G0 X250.32 Y158.99
G0 X250.94 Y160.01
G0 X252.04 Y162.15
G0 X252.96 Y164.38
G0 X253.68 Y166.71
G0 X254.21 Y169.14
G0 X254.55 Y171.67
G0 X254.69 Y174.3
G0 X254.65 Y177.03
G0 X254.56 Y178.43
G0 X254.56 Y178.43
G0 X254.45 Y179.8
G0 X254.08 Y182.43
G0 X253.53 Y184.94
G0 X252.79 Y187.31
G0 X251.86 Y189.54
G0 X250.74 Y191.65
G0 X249.44 Y193.63
G0 X247.95 Y195.47
G0 X247.13 Y196.34
G0 X247.13 Y196.34
G0 X246.27 Y197.17
G0 X244.44 Y198.72
G0 X242.44 Y200.1
G0 X240.29 Y201.32
G0 X237.97 Y202.39
G0 X235.5 Y203.28
G0 X232.87 Y204.02
G0 X230.09 Y204.6
G0 X228.63 Y204.82
G0 X228.63 Y204.82
G0 X227.4 Y204.97
G0 X224.94 Y205.1
G0 X222.51 Y205.02
G0 X220.09 Y204.71
G0 X217.69 Y204.18
G0 X215.3 Y203.43
G0 X212.94 Y202.45
G0 X210.59 Y201.26
G0 X209.43 Y200.58
G0 X209.43 Y200.58
G0 X208.29 Y199.86
G0 X206.16 Y198.34
G0 X204.22 Y196.7
G0 X202.48 Y194.96
G0 X200.93 Y193.1
G0 X199.58 Y191.13
G0 X198.42 Y189.06
G0 X197.46 Y186.87
G0 X197.06 Y185.73
G0 X197.06 Y185.73
G0 X196.6 Y184.56
G0 X195.84 Y182.26
G0 X195.52 Y181.14
G0 X195.52 Y181.14
G0 X194.9 Y178.81
G0 X194.23 Y176.31
G0 X194.23 Y176.31
G0 X189.72 Y176.31
G0 X185.15 Y176.31
G0 X185.15 Y176.31
G0 X180.53 Y176.31
G0 X175.85 Y176.31
G0 X175.85 Y176.31
G0 X171.1 Y176.31
G0 X166.3 Y176.31
G0 X166.3 Y176.31
G0 X161.26 Y176.31
G0 X155.81 Y176.31
G0 X155.81 Y176.31
G0 X156.26 Y178.79
G0 X157.03 Y183.8
G0 X157.34 Y186.32
G0 X157.34 Y186.32
G0 X157.5 Y187.58
G0 X157.87 Y190.07
G0 X158.31 Y192.52
G0 X158.83 Y194.92
G0 X159.11 Y196.1
G0 X159.11 Y196.1
G0 X159.47 Y197.45
G0 X160.25 Y200.1
G0 X161.09 Y202.69
G0 X161.99 Y205.23
G0 X162.97 Y207.7
G0 X164 Y210.12
G0 X165.11 Y212.47
G0 X166.28 Y214.77
G0 X166.89 Y215.9
G0 X166.89 Y215.9
G0 X167.55 Y217.01
G0 X168.9 Y219.18
G0 X170.32 Y221.28
G0 X171.81 Y223.31
G0 X173.35 Y225.26
G0 X174.96 Y227.15
G0 X176.64 Y228.97
G0 X178.37 Y230.72
G0 X179.26 Y231.57
G0 X179.26 Y231.57
G0 X180.17 Y232.4
G0 X182.03 Y234
G0 X183.95 Y235.53
G0 X185.93 Y236.97
G0 X187.98 Y238.34
G0 X190.09 Y239.64
G0 X192.26 Y240.85
G0 X194.5 Y241.99
G0 X195.64 Y242.53
G0 X195.64 Y242.53
G0 X196.77 Y243.05
G0 X199.06 Y244.01
G0 X201.4 Y244.88
G0 X203.79 Y245.65
G0 X206.24 Y246.33
G0 X208.73 Y246.91
G0 X211.28 Y247.4
G0 X213.88 Y247.79
G0 X215.2 Y247.95
G0 X215.2 Y247.95
G0 X217.25 Y248.17
G0 X221.3 Y248.47
G0 X225.26 Y248.62
G0 X229.14 Y248.61
G0 X232.94 Y248.43
G0 X236.66 Y248.09
G0 X240.3 Y247.59
G0 X243.85 Y246.93
G0 X245.6 Y246.53
G0 X245.6 Y246.53
G0 X247.33 Y246.08
G0 X250.7 Y245.06
G0 X253.96 Y243.91
G0 X257.11 Y242.63
G0 X260.16 Y241.22
G0 X263.1 Y239.67
G0 X265.94 Y237.99
G0 X268.67 Y236.18
G0 X269.99 Y235.22
G0 X269.99 Y235.22
G0 X271.29 Y234.24
G0 X273.79 Y232.17
G0 X276.17 Y229.99
G0 X278.42 Y227.7
G0 X280.56 Y225.28
G0 X282.57 Y222.75
G0 X284.47 Y220.1
G0 X286.24 Y217.33
G0 X287.08 Y215.9
G0 X287.08 Y215.9
G0 X287.91 Y214.44
G0 X289.47 Y211.48
G0 X290.87 Y208.43
G0 X292.11 Y205.3
G0 X293.2 Y202.09
G0 X294.14 Y198.8
G0 X294.92 Y195.42
G0 X295.54 Y191.97
G0 X295.8 Y190.21
G0 X295.8 Y190.21
G0 X296.02 Y188.63
G0 X296.39 Y185.48
G0 X296.65 Y182.37
G0 X296.82 Y179.3
G0 X296.88 Y176.27
G0 X296.83 Y173.27
G0 X296.68 Y170.31
G0 X296.43 Y167.38
G0 X296.27 Y165.94
G0 X296.27 Y165.94
G0 X296.08 Y164.53
G0 X295.62 Y161.74
G0 X295.06 Y159.01
G0 X294.4 Y156.31
G0 X293.63 Y153.66
G0 X292.77 Y151.05
G0 X291.79 Y148.49
G0 X290.72 Y145.97
G0 X290.14 Y144.73
G0 X290.14 Y144.73
G0 X289.54 Y143.5
G0 X288.27 Y141.07
G0 X286.9 Y138.68
G0 X285.43 Y136.34
G0 X283.87 Y134.04
G0 X282.21 Y131.79
G0 X280.46 Y129.58
G0 X278.61 Y127.41
G0 X277.65 Y126.35
G0 X277.65 Y126.35
G0 X276.67 Y125.26
G0 X274.64 Y123.13
G0 X272.52 Y121.06
G0 X270.31 Y119.03
G0 X268.01 Y117.06
G0 X265.62 Y115.14
G0 X263.15 Y113.27
G0 X260.59 Y111.45
G0 X259.27 Y110.56
G0 X259.27 Y110.56
G0 X253.84 Y106.91
G0 X242.88 Y99.66
G0 X237.35 Y96.06
G0 X237.35 Y96.06
G0 X231.83 Y92.46
G0 X220.87 Y85.21
G0 X215.44 Y81.57
G0 X215.44 Y81.57
G0 Z -0
G0 F111
G0 X215.91 Y30.66
G1 F100
G0 Z 0
G0 Z0
G0 X215.91 Y30.66
G0 X215.91 Y30.66
G0 X215.92 Y30.56
G0 X215.97 Y30.44
G0 X216.03 Y30.43
G0 X216.03 Y30.43
G0 X216.17 Y30.43
G0 X216.38 Y30.43
G0 X216.38 Y30.43
G0 X215.92 Y29.6
G0 X215.1 Y27.95
G0 X214.73 Y27.13
G0 X214.73 Y27.13
G0 X214.56 Y26.71
G0 X214.3 Y25.86
G0 X214.12 Y24.98
G0 X214.03 Y24.06
G0 X214.02 Y23.6
G0 X214.02 Y23.6
G0 X214.67 Y23.8
G0 X215.2 Y23.95
G0 X215.2 Y23.95
G0 X215.42 Y24.01
G0 X215.77 Y24.19
G0 X215.91 Y24.3
G0 X215.91 Y24.3
G0 X215.94 Y22.39
G0 X216.03 Y20.41
G0 X216.03 Y20.41
G0 X216.07 Y19.91
G0 X216.26 Y18.93
G0 X216.59 Y17.96
G0 X217.04 Y17
G0 X217.32 Y16.53
G0 X217.32 Y16.53
G0 X217.56 Y16.66
G0 X218.09 Y17.01
G0 X218.38 Y17.23
G0 X218.38 Y17.23
G0 X218.65 Y17.47
G0 X219.07 Y17.94
G0 X219.21 Y18.17
G0 X219.21 Y18.17
G0 X219.68 Y18.68
G0 X220.15 Y19.24
G0 X220.15 Y19.24
G0 X220.62 Y19.8
G0 X221.09 Y20.3
G0 X221.09 Y20.06
G0 X221.09 Y20.06
G0 X221.1 Y19.71
G0 X221.16 Y19
G0 X221.21 Y18.65
G0 X221.21 Y18.65
G0 X221.25 Y18.29
G0 X221.19 Y17.59
G0 X221.09 Y17.23
G0 X221.09 Y17.23
G0 X221.06 Y16.5
G0 X220.98 Y15.7
G0 X220.98 Y15.7
G0 X220.91 Y15.3
G0 X220.73 Y14.53
G0 X220.62 Y14.17
G0 X220.62 Y14.17
G0 X220.72 Y14.05
G0 X220.84 Y13.82
G0 X220.86 Y13.7
G0 X220.86 Y13.7
G0 X221.33 Y13.48
G0 X222.27 Y13.12
G0 X222.74 Y12.99
G0 X222.74 Y12.99
G0 X223.23 Y12.89
G0 X224.29 Y12.77
G0 X224.86 Y12.75
G0 X224.86 Y12.75
G0 X225.33 Y12.66
G0 X226.28 Y12.6
G0 X226.75 Y12.64
G0 X226.75 Y12.64
G0 X227.22 Y12.72
G0 X228.16 Y13.01
G0 X228.63 Y13.23
G0 X228.63 Y13.23
G0 X229.28 Y13.46
G0 X229.81 Y13.7
G0 X229.81 Y13.7
G0 X230.34 Y13.93
G0 X230.99 Y14.17
G0 X230.99 Y14.17
G0 X231 Y13.94
G0 X231.06 Y13.53
G0 X231.11 Y13.34
G0 X231.11 Y13.34
G0 X231.26 Y12.96
G0 X231.46 Y12.52
G0 X231.46 Y12.52
G0 X231.98 Y12.82
G0 X232.94 Y13.49
G0 X233.79 Y14.22
G0 X234.54 Y15.03
G0 X234.88 Y15.46
G0 X234.88 Y15.46
G0 X235.19 Y15.92
G0 X235.73 Y16.91
G0 X236.18 Y18
G0 X236.52 Y19.19
G0 X236.65 Y19.82
G0 X236.65 Y19.82
G0 X236.88 Y19.59
G0 X237.12 Y19.35
G0 X237.12 Y19.35
G0 X237.35 Y19.12
G0 X237.59 Y18.88
G0 X237.59 Y18.88
G0 X237.6 Y19
G0 X237.65 Y19.24
G0 X237.71 Y19.35
G0 X237.71 Y19.35
G0 X237.85 Y19.59
G0 X238.06 Y19.82
G0 X238.06 Y19.82
G0 X238.17 Y20.19
G0 X238.35 Y20.95
G0 X238.41 Y21.36
G0 X238.41 Y21.36
G0 X238.5 Y22.15
G0 X238.53 Y22.89
G0 X238.53 Y22.89
G0 X238.53 Y23.59
G0 X238.53 Y24.3
G0 X238.53 Y24.3
G0 X238.53 Y25.01
G0 X238.53 Y25.72
G0 X238.53 Y25.72
G0 X238.39 Y26.42
G0 X237.98 Y27.84
G0 X237.71 Y28.54
G0 X237.71 Y28.54
G0 X237.4 Y29.24
G0 X236.76 Y30.53
G0 X236.41 Y31.14
G0 X236.41 Y31.14
G0 X236.17 Y31.61
G0 X235.94 Y32.08
G0 X235.94 Y32.08
G0 X235.7 Y32.61
G0 X235.47 Y33.26
G0 X235.47 Y33.26
G0 X235.2 Y33.96
G0 X234.88 Y34.67
G0 X234.88 Y34.67
G0 X234.72 Y35.04
G0 X234.55 Y35.86
G0 X234.53 Y36.32
G0 X234.29 Y36.56
G0 X234.29 Y36.56
G0 X233.82 Y36.89
G0 X232.88 Y37.48
G0 X232.41 Y37.73
G0 X232.41 Y37.73
G0 X231.92 Y37.96
G0 X230.86 Y38.31
G0 X230.28 Y38.44
G0 X229.58 Y38.21
G0 X229.58 Y38.21
G0 X228.99 Y38.59
G0 X228.63 Y38.8
G0 X228.63 Y38.8
G0 X228.49 Y38.85
G0 X228.02 Y38.91
G0 X227.69 Y38.91
G0 X227.46 Y38.91
G0 X227.46 Y38.91
G0 X227.05 Y38.91
G0 X226.23 Y38.85
G0 X225.44 Y38.73
G0 X224.66 Y38.55
G0 X224.27 Y38.44
G0 X224.27 Y38.44
G0 X223.52 Y38.19
G0 X222.04 Y37.6
G0 X221.33 Y37.26
G0 X221.33 Y37.26
G0 X221.21 Y37.25
G0 X220.97 Y37.13
G0 X220.86 Y37.03
G0 X220.86 Y37.03
G0 X220.74 Y36.92
G0 X220.5 Y36.81
G0 X220.39 Y36.79
G0 X220.39 Y36.79
G0 X220.4 Y36.69
G0 X220.52 Y36.57
G0 X220.62 Y36.56
G0 X220.62 Y36.56
G0 X220.5 Y36.45
G0 X220.2 Y36.34
G0 X220.03 Y36.32
G0 X220.03 Y36.32
G0 X219.86 Y36.31
G0 X219.57 Y36.19
G0 X219.44 Y36.09
G0 X219.44 Y36.09
G0 X218.87 Y35.61
G0 X217.81 Y34.61
G0 X217.32 Y34.08
G0 X217.32 Y34.08
G0 X216.87 Y33.53
G0 X216.04 Y32.29
G0 X215.67 Y31.61
G0 X215.67 Y31.61
G0 X215.64 Y31.37
G0 X215.55 Y31.14
G0 X215.55 Y31.14
G0 X215.41 Y30.9
G0 X215.2 Y30.66
G0 X215.2 Y30.66
G0 X215.41 Y30.66
G0 X215.55 Y30.66
G0 X215.55 Y30.66
G0 X215.7 Y30.66
G0 X215.91 Y30.66
G0 X215.91 Y30.66
G0 Z -0
G0 F111
G0 X217.32 Y25.95
G1 F100
G0 Z 0
G0 Z0
G0 X217.32 Y25.95
G0 X217.32 Y25.95
G0 X216.67 Y25.71
G0 X216.14 Y25.48
G0 X216.14 Y25.48
G0 X215.67 Y25.24
G0 X215.2 Y25.01
G0 X215.2 Y25.01
G0 X215.27 Y25.42
G0 X215.44 Y26.23
G0 X215.68 Y27.02
G0 X215.97 Y27.8
G0 X216.14 Y28.19
G0 X216.14 Y28.19
G0 X216.53 Y28.95
G0 X217.47 Y30.42
G0 X218.03 Y31.14
G0 X218.03 Y31.14
G0 X217.76 Y31.17
G0 X217.44 Y31.25
G0 X217.44 Y31.25
G0 X217.26 Y31.31
G0 X216.84 Y31.36
G0 X216.62 Y31.37
G0 X216.62 Y31.37
G0 X216.77 Y31.74
G0 X217.3 Y32.56
G0 X217.68 Y33.02
G0 X217.68 Y33.02
G0 X218.47 Y33.9
G0 X219.21 Y34.67
G0 X219.21 Y34.67
G0 X219.22 Y34.38
G0 X219.29 Y33.84
G0 X219.44 Y33.34
G0 X219.66 Y32.88
G0 X219.8 Y32.67
G0 X219.8 Y32.67
G0 X219.95 Y32.47
G0 X220.32 Y32.13
G0 X220.76 Y31.87
G0 X221.28 Y31.67
G0 X221.56 Y31.61
G0 X221.56 Y31.61
G0 X221.53 Y31.87
G0 X221.45 Y32.2
G0 X221.45 Y32.2
G0 X221.36 Y32.52
G0 X221.33 Y32.79
G0 X221.33 Y32.79
G0 X221.12 Y33.26
G0 X220.98 Y33.73
G0 X220.98 Y33.73
G0 X220.94 Y33.98
G0 X221 Y34.57
G0 X221.09 Y34.91
G0 X221.09 Y34.91
G0 X221.12 Y35.12
G0 X221.23 Y35.36
G0 X221.36 Y35.46
G0 X221.45 Y35.5
G0 X221.45 Y35.5
G0 X221.63 Y35.55
G0 X222.04 Y35.61
G0 X222.27 Y35.61
G0 X222.27 Y35.61
G0 X222.68 Y35.41
G0 X222.98 Y35.26
G0 X222.98 Y35.26
G0 X223.21 Y35.11
G0 X223.45 Y34.91
G0 X223.69 Y34.67
G0 X223.69 Y34.67
G0 X223.77 Y35.02
G0 X223.79 Y35.51
G0 X223.74 Y35.82
G0 X223.69 Y35.97
G0 X223.69 Y35.97
G0 X223.54 Y36.25
G0 X223.07 Y36.78
G0 X222.74 Y37.03
G0 X222.74 Y37.03
G0 X223.39 Y37.23
G0 X223.92 Y37.38
G0 X223.92 Y37.38
G0 X224.39 Y37.53
G0 X224.86 Y37.73
G0 X224.86 Y37.73
G0 X225.63 Y37.76
G0 X226.51 Y37.85
G0 X226.51 Y37.85
G0 X227.4 Y37.94
G0 X228.16 Y37.97
G0 X228.16 Y37.97
G0 X228.28 Y37.96
G0 X228.52 Y37.84
G0 X228.63 Y37.73
G0 X228.63 Y37.73
G0 X228.85 Y37.61
G0 X229.21 Y37.31
G0 X229.34 Y37.15
G0 X229.34 Y37.15
G0 X229.47 Y36.98
G0 X229.83 Y36.68
G0 X230.05 Y36.56
G0 X230.05 Y36.56
G0 X230.25 Y36.32
G0 X230.4 Y36.08
G0 X230.4 Y36.08
G0 X230.55 Y35.85
G0 X230.76 Y35.61
G0 X230.76 Y35.38
G0 X230.76 Y35.38
G0 X230.76 Y35.11
G0 X230.76 Y34.79
G0 X230.76 Y34.79
G0 X230.74 Y34.62
G0 X230.62 Y34.32
G0 X230.52 Y34.2
G0 X230.52 Y34.2
G0 X230.25 Y34.43
G0 X229.93 Y34.67
G0 X229.93 Y34.67
G0 X229.61 Y34.91
G0 X229.34 Y35.14
G0 X229.34 Y35.14
G0 X229.22 Y35.16
G0 X228.92 Y35.27
G0 X228.75 Y35.38
G0 X228.75 Y35.38
G0 X228.43 Y35.61
G0 X228.16 Y35.85
G0 X228.16 Y35.85
G0 X227.93 Y35.85
G0 X227.69 Y35.85
G0 X227.69 Y35.85
G0 X227.23 Y35.72
G0 X226.34 Y35.43
G0 X225.92 Y35.26
G0 X225.92 Y35.26
G0 X225.07 Y34.88
G0 X224.16 Y34.44
G0 X224.16 Y34.2
G0 X223.92 Y34.2
G0 X223.92 Y34.2
G0 X224.13 Y33.99
G0 X224.27 Y33.85
G0 X224.27 Y33.85
G0 X224.34 Y33.79
G0 X224.52 Y33.74
G0 X224.63 Y33.73
G0 X224.63 Y33.73
G0 X224.29 Y33.6
G0 X223.7 Y33.31
G0 X223.45 Y33.14
G0 X223.45 Y33.14
G0 X223.23 Y32.95
G0 X222.87 Y32.54
G0 X222.74 Y32.31
G0 X222.74 Y32.31
G0 X222.87 Y32.3
G0 X223.23 Y32.18
G0 X223.45 Y32.08
G0 X223.45 Y32.08
G0 X223.55 Y32.06
G0 X223.67 Y31.95
G0 X223.69 Y31.84
G0 X223.69 Y31.84
G0 X223.82 Y31.5
G0 X224.17 Y30.91
G0 X224.39 Y30.66
G0 X224.39 Y30.66
G0 X224.63 Y30.44
G0 X225.1 Y30.09
G0 X225.34 Y29.96
G0 X225.34 Y29.96
G0 X225.56 Y29.95
G0 X225.98 Y29.89
G0 X226.16 Y29.84
G0 X226.16 Y29.84
G0 X226.34 Y29.79
G0 X226.76 Y29.73
G0 X226.98 Y29.72
G0 X226.98 Y29.72
G0 X227.48 Y29.75
G0 X228.05 Y29.84
G0 X228.05 Y29.84
G0 X228.33 Y29.88
G0 X228.86 Y29.82
G0 X229.11 Y29.72
G0 X229.11 Y29.72
G0 X229.34 Y29.72
G0 X229.58 Y29.72
G0 X229.58 Y29.72
G0 X229.87 Y29.72
G0 X230.28 Y29.72
G0 X230.28 Y29.72
G0 X230.05 Y29.93
G0 X229.81 Y30.08
G0 X229.81 Y30.08
G0 X229.58 Y30.22
G0 X229.34 Y30.43
G0 X229.34 Y30.43
G0 X229.33 Y30.53
G0 X229.27 Y30.65
G0 X229.22 Y30.66
G0 X229.22 Y30.66
G0 X229.17 Y30.68
G0 X229.11 Y30.8
G0 X229.11 Y30.9
G0 X229.11 Y30.9
G0 X228.87 Y31.11
G0 X228.4 Y31.41
G0 X228.16 Y31.49
G0 X228.16 Y31.49
G0 X227.69 Y31.58
G0 X227.22 Y31.61
G0 X227.22 Y31.61
G0 X226.87 Y31.62
G0 X226.23 Y31.74
G0 X225.92 Y31.84
G0 X225.92 Y31.84
G0 X225.36 Y32.08
G0 X224.86 Y32.31
G0 X224.86 Y32.31
G0 X224.99 Y32.53
G0 X225.35 Y32.89
G0 X225.57 Y33.02
G0 X225.57 Y33.02
G0 X225.81 Y33.12
G0 X226.28 Y33.24
G0 X226.51 Y33.26
G0 X226.75 Y33.26
G0 X226.75 Y33.26
G0 X226.98 Y33.24
G0 X227.45 Y33.12
G0 X227.69 Y33.02
G0 X227.69 Y33.02
G0 X228.16 Y32.78
G0 X228.63 Y32.55
G0 X228.63 Y32.55
G0 X228.87 Y32.75
G0 X229.11 Y32.9
G0 X229.11 Y32.9
G0 X229.34 Y32.99
G0 X229.58 Y33.02
G0 X229.58 Y33.02
G0 X229.55 Y32.78
G0 X229.46 Y32.55
G0 X229.46 Y32.55
G0 X229.37 Y32.31
G0 X229.34 Y32.08
G0 X229.58 Y31.84
G0 X229.58 Y31.84
G0 X229.71 Y31.61
G0 X230.06 Y31.13
G0 X230.28 Y30.9
G0 X230.28 Y30.9
G0 X230.69 Y30.49
G0 X230.99 Y30.19
G0 X230.99 Y30.19
G0 X231.09 Y30.18
G0 X231.21 Y30.06
G0 X231.23 Y29.96
G0 X231.23 Y29.96
G0 X231.68 Y30.16
G0 X232.51 Y30.4
G0 X232.88 Y30.43
G0 X232.88 Y30.43
G0 X233.24 Y30.4
G0 X234.07 Y30.16
G0 X234.53 Y29.96
G0 X234.53 Y29.96
G0 X234.29 Y30.19
G0 X234.05 Y30.43
G0 X234.05 Y30.43
G0 X233.82 Y30.66
G0 X233.58 Y30.9
G0 X233.58 Y30.9
G0 X233.35 Y31.13
G0 X233.11 Y31.37
G0 X233.11 Y31.37
G0 X232.87 Y31.61
G0 X232.64 Y31.84
G0 X232.64 Y31.84
G0 X232.43 Y32.08
G0 X232.29 Y32.31
G0 X232.29 Y32.31
G0 X232.14 Y32.55
G0 X231.93 Y32.79
G0 X231.93 Y32.79
G0 X232.15 Y32.77
G0 X232.51 Y32.65
G0 X232.64 Y32.55
G0 X232.64 Y32.55
G0 X232.76 Y32.45
G0 X232.99 Y32.33
G0 X233.11 Y32.31
G0 X233.11 Y32.31
G0 X233.23 Y32.33
G0 X233.46 Y32.45
G0 X233.58 Y32.55
G0 X233.58 Y32.55
G0 X233.7 Y32.64
G0 X233.94 Y32.64
G0 X234.05 Y32.55
G0 X234.05 Y32.55
G0 X234.16 Y32.43
G0 X234.28 Y32.2
G0 X234.29 Y32.08
G0 X234.29 Y32.08
G0 X234.28 Y31.95
G0 X234.16 Y31.59
G0 X234.05 Y31.37
G0 X234.05 Y31.37
G0 X234.29 Y31.13
G0 X234.53 Y30.9
G0 X234.53 Y30.9
G0 X234.76 Y30.66
G0 X235 Y30.43
G0 X235 Y30.43
G0 X235.03 Y30.66
G0 X235.11 Y30.9
G0 X235.11 Y30.9
G0 X235.15 Y31.02
G0 X235.09 Y31.25
G0 X235 Y31.37
G0 X235 Y31.37
G0 X234.97 Y31.64
G0 X234.88 Y31.96
G0 X234.88 Y31.96
G0 X234.73 Y32.34
G0 X234.53 Y32.79
G0 X234.53 Y32.79
G0 X234.52 Y32.89
G0 X234.46 Y33.07
G0 X234.41 Y33.14
G0 X234.41 Y33.14
G0 X234.34 Y33.19
G0 X234.16 Y33.25
G0 X234.05 Y33.26
G0 X234.05 Y33.26
G0 X233.7 Y33.6
G0 X232.99 Y34.18
G0 X232.64 Y34.44
G0 X232.64 Y34.44
G0 X231.93 Y34.91
G0 X231.23 Y35.38
G0 X230.99 Y35.61
G0 X230.99 Y35.61
G0 X230.99 Y36.08
G0 X230.99 Y36.56
G0 X230.99 Y36.56
G0 X230.99 Y37.03
G0 X230.99 Y37.5
G0 X230.99 Y37.5
G0 X231.25 Y37.26
G0 X231.58 Y37.03
G0 X231.58 Y37.03
G0 X231.76 Y36.92
G0 X232.18 Y36.81
G0 X232.41 Y36.79
G0 X232.41 Y36.79
G0 X232.64 Y36.56
G0 X232.88 Y36.32
G0 X232.88 Y36.32
G0 X232.99 Y36.22
G0 X233.23 Y36.1
G0 X233.35 Y36.08
G0 X233.58 Y35.85
G0 X233.58 Y35.61
G0 X233.58 Y35.61
G0 X233.69 Y35.48
G0 X233.87 Y35.13
G0 X233.94 Y34.91
G0 X233.94 Y34.91
G0 X234.02 Y34.43
G0 X234.05 Y33.96
G0 X234.05 Y33.96
G0 X234.29 Y33.46
G0 X234.53 Y32.9
G0 X234.53 Y32.9
G0 X234.76 Y32.34
G0 X235 Y31.84
G0 X235 Y31.84
G0 X235.2 Y31.43
G0 X235.35 Y31.14
G0 X235.35 Y31.14
G0 X235.5 Y30.9
G0 X235.7 Y30.66
G0 X235.7 Y30.66
G0 X236.04 Y30.07
G0 X236.63 Y28.83
G0 X236.88 Y28.19
G0 X236.88 Y28.19
G0 X237.1 Y27.55
G0 X237.46 Y26.31
G0 X237.59 Y25.72
G0 X237.59 Y25.72
G0 X237.59 Y24.98
G0 X237.59 Y24.18
G0 X237.59 Y24.18
G0 X237.59 Y23.39
G0 X237.59 Y22.65
G0 X237.59 Y22.65
G0 X237.56 Y22.18
G0 X237.47 Y21.71
G0 X237.47 Y21.71
G0 X237.42 Y21.48
G0 X237.36 Y21
G0 X237.35 Y20.77
G0 X237.12 Y20.77
G0 X237.12 Y20.77
G0 X236.88 Y21.03
G0 X236.65 Y21.36
G0 X236.65 Y21.36
G0 X236.51 Y21.53
G0 X236.16 Y21.82
G0 X235.94 Y21.95
G0 X235.94 Y21.95
G0 X235.94 Y21.68
G0 X235.94 Y21.36
G0 X235.94 Y21.36
G0 X235.94 Y21.03
G0 X235.94 Y20.77
G0 X235.94 Y20.77
G0 X235.87 Y20.24
G0 X235.65 Y19.24
G0 X235.32 Y18.3
G0 X234.9 Y17.42
G0 X234.64 Y17
G0 X234.64 Y17
G0 X234.37 Y16.59
G0 X233.76 Y15.79
G0 X233.09 Y15.03
G0 X232.34 Y14.29
G0 X231.93 Y13.93
G0 X231.93 Y13.93
G0 X231.93 Y14.16
G0 X231.87 Y14.57
G0 X231.82 Y14.76
G0 X231.82 Y14.76
G0 X231.67 Y15.14
G0 X231.46 Y15.58
G0 X231.46 Y15.58
G0 X231.35 Y15.57
G0 X231.17 Y15.52
G0 X231.11 Y15.46
G0 X231.11 Y15.46
G0 X231.04 Y15.41
G0 X230.86 Y15.35
G0 X230.76 Y15.35
G0 X230.76 Y15.35
G0 X230.05 Y14.91
G0 X228.63 Y14.2
G0 X227.93 Y13.93
G0 X227.93 Y13.93
G0 X227.57 Y13.83
G0 X226.83 Y13.68
G0 X226.07 Y13.62
G0 X225.27 Y13.65
G0 X224.86 Y13.7
G0 X224.86 Y13.7
G0 X224.16 Y13.73
G0 X223.45 Y13.81
G0 X223.45 Y13.81
G0 X223.1 Y13.9
G0 X222.39 Y14.19
G0 X222.04 Y14.4
G0 X222.04 Y14.4
G0 X221.93 Y14.42
G0 X221.81 Y14.54
G0 X221.8 Y14.64
G0 X221.8 Y14.64
G0 X222 Y15.79
G0 X222.15 Y16.88
G0 X222.15 Y16.88
G0 X222.19 Y17.4
G0 X222.13 Y18.4
G0 X222.04 Y18.88
G0 X222.04 Y18.88
G0 X222.01 Y19.62
G0 X221.92 Y20.41
G0 X221.92 Y20.41
G0 X221.85 Y20.82
G0 X221.67 Y21.59
G0 X221.56 Y21.95
G0 X221.56 Y21.95
G0 X221.34 Y21.94
G0 X220.99 Y21.88
G0 X220.86 Y21.83
G0 X220.86 Y21.83
G0 X220.75 Y21.75
G0 X220.64 Y21.45
G0 X220.62 Y21.24
G0 X220.62 Y21.24
G0 X220.27 Y20.88
G0 X219.63 Y20.11
G0 X219.33 Y19.71
G0 X219.33 Y19.71
G0 X219.01 Y19.3
G0 X218.24 Y18.54
G0 X217.79 Y18.17
G0 X217.79 Y18.17
G0 X217.78 Y18.07
G0 X217.66 Y17.95
G0 X217.56 Y17.94
G0 X217.56 Y17.94
G0 X217.39 Y18.41
G0 X217.13 Y19.37
G0 X216.95 Y20.34
G0 X216.86 Y21.33
G0 X216.85 Y21.83
G0 X216.85 Y21.83
G0 X216.88 Y22.84
G0 X217.12 Y24.9
G0 X217.32 Y25.95
G0 X217.32 Y25.95
G0 Z -0
G0 F111
G0 X219.44 Y41.03
G1 F100
G0 Z 0
G0 Z0
G0 X219.44 Y41.03
G0 X219.21 Y40.8
G0 X219.21 Y40.8
G0 X219.54 Y40.44
G0 X220.07 Y39.67
G0 X220.27 Y39.27
G0 X220.27 Y39.27
G0 X220.44 Y38.85
G0 X220.73 Y37.96
G0 X220.86 Y37.5
G0 X220.86 Y37.5
G0 X221.45 Y37.84
G0 X222.66 Y38.41
G0 X223.89 Y38.85
G0 X225.16 Y39.16
G0 X225.81 Y39.27
G0 X225.81 Y39.27
G0 X226.45 Y39.33
G0 X227.75 Y39.35
G0 X229.05 Y39.2
G0 X230.34 Y38.89
G0 X230.99 Y38.68
G0 X230.99 Y38.68
G0 X231 Y39.14
G0 X231.06 Y40.02
G0 X231.11 Y40.44
G0 X231.11 Y40.44
G0 X231.19 Y40.86
G0 X231.48 Y41.75
G0 X231.7 Y42.21
G0 X231.7 Y42.21
G0 X231.23 Y41.77
G0 X230.76 Y41.39
G0 X230.76 Y41.39
G0 X230.28 Y41
G0 X229.81 Y40.56
G0 X229.81 Y40.56
G0 X229.78 Y41.27
G0 X229.7 Y41.98
G0 X229.7 Y41.98
G0 X229.64 Y42.33
G0 X229.58 Y43.04
G0 X229.58 Y43.39
G0 X229.58 Y43.39
G0 X228.9 Y42.68
G0 X228.28 Y41.98
G0 X228.28 Y41.98
G0 X227.72 Y41.27
G0 X227.22 Y40.56
G0 X227.22 Y40.56
G0 X226.75 Y41.27
G0 X226.28 Y41.98
G0 X226.28 Y41.98
G0 X225.81 Y42.68
G0 X225.34 Y43.39
G0 X225.34 Y43.39
G0 X225.1 Y42.65
G0 X224.86 Y41.86
G0 X224.86 Y41.86
G0 X224.73 Y41.45
G0 X224.38 Y40.69
G0 X224.16 Y40.33
G0 X224.16 Y40.33
G0 X223.42 Y40.8
G0 X222.62 Y41.27
G0 X222.62 Y41.27
G0 X222.22 Y41.52
G0 X221.45 Y42.11
G0 X221.09 Y42.45
G0 X221.09 Y42.45
G0 X221.1 Y42.09
G0 X221.16 Y41.39
G0 X221.21 Y41.03
G0 X221.21 Y41.03
G0 X221.28 Y40.68
G0 X221.45 Y39.97
G0 X221.56 Y39.62
G0 X221.56 Y39.62
G0 X221.44 Y39.73
G0 X221.14 Y39.91
G0 X220.98 Y39.97
G0 X220.98 Y39.97
G0 X220.81 Y40.04
G0 X220.51 Y40.22
G0 X220.39 Y40.33
G0 X220.39 Y40.33
G0 X220.15 Y40.53
G0 X219.91 Y40.68
G0 X219.91 Y40.68
G0 X219.68 Y40.83
G0 X219.44 Y41.03
G0 X219.44 Y41.03
G0 Z -0
G0 F111
G0 X221.09 Y36.56
G1 F100
G0 Z 0
G0 Z0
G0 X221.09 Y36.56
G0 X221.09 Y36.56
G0 X221.33 Y36.56
G0 X221.56 Y36.56
G0 X221.56 Y36.56
G0 X221.44 Y36.45
G0 X221.14 Y36.27
G0 X220.98 Y36.2
G0 X220.98 Y36.2
G0 X220.81 Y36.14
G0 X220.51 Y35.96
G0 X220.39 Y35.85
G0 X220.39 Y35.85
G0 X220.49 Y35.96
G0 X220.61 Y36.14
G0 X220.62 Y36.2
G0 X220.62 Y36.2
G0 X220.62 Y36.35
G0 X220.62 Y36.56
G0 X220.62 Y36.56
G0 X220.86 Y36.56
G0 X221.09 Y36.56
G0 X221.09 Y36.56
G0 Z -0
G0 F111
G0 X231.23 Y29.49
G1 F100
G0 Z 0
G0 Z0
G0 X231.23 Y29.49
G0 X231.23 Y29.49
G0 X230.76 Y29.35
G0 X229.88 Y29
G0 X229.46 Y28.78
G0 X229.46 Y28.78
G0 X229.05 Y28.53
G0 X228.29 Y27.94
G0 X227.93 Y27.6
G0 X227.93 Y27.6
G0 X228.16 Y27.1
G0 X228.4 Y26.54
G0 X228.4 Y26.54
G0 X228.63 Y25.98
G0 X228.87 Y25.48
G0 X228.87 Y25.48
G0 X229.08 Y25.27
G0 X229.38 Y25.04
G0 X229.46 Y25.01
G0 X229.46 Y25.01
G0 X229.66 Y25.01
G0 X230.05 Y25.01
G0 X230.05 Y25.01
G0 X230.5 Y25.14
G0 X231.33 Y25.49
G0 X231.7 Y25.72
G0 X231.7 Y25.72
G0 X232.04 Y25.95
G0 X232.62 Y26.42
G0 X232.88 Y26.66
G0 X232.88 Y26.66
G0 X232.98 Y26.67
G0 X233.1 Y26.79
G0 X233.11 Y26.89
G0 X233.11 Y26.89
G0 X233.11 Y27.34
G0 X233.11 Y27.72
G0 X233.11 Y27.72
G0 X233.11 Y28.04
G0 X233.11 Y28.31
G0 X233.11 Y28.31
G0 X233.1 Y28.41
G0 X233.04 Y28.53
G0 X232.99 Y28.54
G0 X232.99 Y28.54
G0 X232.94 Y28.56
G0 X232.88 Y28.68
G0 X232.88 Y28.78
G0 X232.88 Y28.78
G0 X232.75 Y28.79
G0 X232.46 Y28.91
G0 X232.29 Y29.01
G0 X232.29 Y29.01
G0 X231.96 Y29.25
G0 X231.7 Y29.49
G0 X231.7 Y29.49
G0 X231.46 Y29.49
G0 X231.23 Y29.49
G0 X231.23 Y29.49
G0 Z -0
G0 F111
G0 X234.29 Y24.77
G1 F100
G0 Z 0
G0 Z0
G0 X234.29 Y24.77
G0 X234.29 Y24.77
G0 X234.08 Y24.98
G0 X233.94 Y25.13
G0 X233.94 Y25.13
G0 X233.87 Y25.18
G0 X233.69 Y25.24
G0 X233.58 Y25.24
G0 X233.58 Y25.24
G0 X233.47 Y25.14
G0 X233.29 Y25.02
G0 X233.23 Y25.01
G0 X233.23 Y25.01
G0 X233.18 Y25.02
G0 X233.12 Y25.14
G0 X233.11 Y25.24
G0 X233.11 Y25.24
G0 X232.98 Y25.23
G0 X232.63 Y25.11
G0 X232.41 Y25.01
G0 X232.41 Y25.01
G0 X232.15 Y24.77
G0 X231.56 Y24.3
G0 X231.23 Y24.07
G0 X231.23 Y24.07
G0 X230.87 Y23.86
G0 X230.17 Y23.62
G0 X229.81 Y23.6
G0 X229.81 Y23.6
G0 X230.05 Y23.12
G0 X230.28 Y22.65
G0 X230.28 Y22.65
G0 X230.52 Y22.18
G0 X230.76 Y21.71
G0 X230.76 Y21.71
G0 X231.23 Y21.97
G0 X231.7 Y22.3
G0 X231.7 Y22.3
G0 X231.95 Y22.47
G0 X232.54 Y22.76
G0 X232.88 Y22.89
G0 X232.88 Y22.89
G0 X232.88 Y22.42
G0 X232.88 Y21.95
G0 X232.88 Y21.95
G0 X232.89 Y21.73
G0 X233.01 Y21.37
G0 X233.11 Y21.24
G0 X233.11 Y21.24
G0 X233.34 Y21.36
G0 X233.75 Y21.66
G0 X233.94 Y21.83
G0 X233.94 Y21.83
G0 X234.11 Y22.01
G0 X234.4 Y22.42
G0 X234.53 Y22.65
G0 X234.53 Y22.65
G0 X234.62 Y22.99
G0 X234.68 Y23.58
G0 X234.64 Y23.83
G0 X234.64 Y23.83
G0 X234.49 Y24.3
G0 X234.29 Y24.77
G0 X234.29 Y24.77
G0 Z -0
G0 F111
G0 X234.05 Y28.54
G1 F100
G0 Z 0
G0 Z0
G0 X234.05 Y28.54
G0 X234.05 Y28.31
G0 X234.05 Y28.31
G0 X234.05 Y28.04
G0 X234.05 Y27.72
G0 X234.05 Y27.72
G0 X234.05 Y27.34
G0 X234.05 Y26.89
G0 X234.05 Y26.66
G0 X234.05 Y26.66
G0 X234.47 Y26.22
G0 X234.76 Y25.83
G0 X234.76 Y25.83
G0 X235.05 Y25.45
G0 X235.47 Y25.01
G0 X235.47 Y25.01
G0 X235.58 Y25.3
G0 X235.74 Y25.88
G0 X235.83 Y26.44
G0 X235.84 Y26.98
G0 X235.82 Y27.25
G0 X235.82 Y27.25
G0 X235.74 Y27.77
G0 X235.45 Y28.77
G0 X235.23 Y29.25
G0 X235.23 Y29.25
G0 X235.11 Y29.24
G0 X234.81 Y29.12
G0 X234.64 Y29.01
G0 X234.64 Y29.01
G0 X234.32 Y28.78
G0 X234.05 Y28.54
G0 X234.05 Y28.54
G0 Z -0
G0 F111
G0 X292.94 Y313.97
G1 F100
G0 Z 0
G0 Z0
G0 X292.94 Y313.97
G0 X10.79 Y313.97
G0 X10.79 Y313.97
G0 X10.23 Y313.95
G0 X9.15 Y313.84
G0 X8.09 Y313.63
G0 X7.08 Y313.31
G0 X6.11 Y312.9
G0 X5.19 Y312.41
G0 X4.33 Y311.82
G0 X3.53 Y311.16
G0 X2.8 Y310.43
G0 X2.14 Y309.63
G0 X1.56 Y308.77
G0 X1.06 Y307.85
G0 X0.65 Y306.88
G0 X0.33 Y305.87
G0 X0.12 Y304.82
G0 X0.01 Y303.73
G0 X0 Y303.17
G0 X0 Y10.79
G0 X0 Y10.79
G0 X0.01 Y10.23
G0 X0.12 Y9.15
G0 X0.33 Y8.09
G0 X0.65 Y7.08
G0 X1.06 Y6.11
G0 X1.56 Y5.19
G0 X2.14 Y4.33
G0 X2.8 Y3.53
G0 X3.53 Y2.8
G0 X4.33 Y2.14
G0 X5.19 Y1.56
G0 X6.11 Y1.06
G0 X7.08 Y0.65
G0 X8.09 Y0.33
G0 X9.15 Y0.12
G0 X10.23 Y0.01
G0 X10.79 Y3.2
G0 X292.94 Y3.2
G0 X292.94 Y3.2
G0 X293.5 Y0.01
G0 X294.59 Y0.12
G0 X295.64 Y0.33
G0 X296.65 Y0.65
G0 X297.62 Y1.06
G0 X298.54 Y1.56
G0 X299.4 Y2.14
G0 X300.2 Y2.8
G0 X300.93 Y3.53
G0 X301.59 Y4.33
G0 X302.17 Y5.19
G0 X302.67 Y6.11
G0 X303.08 Y7.08
G0 X303.4 Y8.09
G0 X303.61 Y9.15
G0 X303.72 Y10.23
G0 X303.74 Y10.79
G0 X303.74 Y303.17
G0 X303.74 Y303.17
G0 X303.72 Y303.73
G0 X303.61 Y304.82
G0 X303.4 Y305.87
G0 X303.08 Y306.88
G0 X302.67 Y307.85
G0 X302.17 Y308.77
G0 X301.59 Y309.63
G0 X300.93 Y310.43
G0 X300.2 Y311.16
G0 X299.4 Y311.82
G0 X298.54 Y312.41
G0 X297.62 Y312.9
G0 X296.65 Y313.31
G0 X295.64 Y313.63
G0 X294.59 Y313.84
G0 X293.5 Y313.95
G0 X292.94 Y313.97
G0 X292.94 Y313.97
G0 Z -0
G0 F111
fin
G0 X0 Y0
M18